{
"type": "FeatureCollection",
"name": "no_fly_zone",
"crs": { "type": "name", "properties": { "name": "urn:ogc:def:crs:EPSG::32635" } },
"features": [
{"type":"Feature","properties":{},"geometry":{"type":"MultiPolygon","coordinates":[[[[619359.129070461494848,5551739.807558067142963],[622830.668702074559405,5550227.759185187518597],[623293.540652956347913,5546879.652073808945715],[620778.603053165483288,5547558.530935102142394],[619359.129070461494848,5551739.807558067142963]]]]}},
{"type":"Feature","properties":{},"geometry":{"type":"MultiPolygon","coordinates":[[[[616257.88699955388438,5555766.793530738912523],[615903.018503877799958,5554270.174222888424993],[617831.651632551802322,5553529.579101477749646],[617816.22256752231624,5555180.489059622399509],[616257.88699955388438,5555766.793530738912523]]]]}},
{"type":"Feature","properties":{"fid":1},"geometry":{"type":"MultiPolygon","coordinates":[[[[621038.968525536358356,5554328.033216747455299],[620776.674420036724769,5552939.417364101856947],[623492.189865209627897,5551674.234031692147255],[623924.203686032560654,5553340.573054866865277],[621038.968525536358356,5554328.033216747455299]]]]}}
]
}
