{
"type": "FeatureCollection",
"name": "aoi",
"crs": { "type": "name", "properties": { "name": "urn:ogc:def:crs:EPSG::32635" } },
"features": [
{"type":"Feature","properties":{"MINX":28.424349024553305,"MINY":50.301063016637229,"MAXX":28.481270766094305,"MAXY":50.326634538212232,"CNTX":28.452809895323803,"CNTY":50.313848777424731,"AREA":0.0014555755419024287,"PERIM":0.16498652623200627,"HEIGHT":0.025571521575002976,"WIDTH":0.056921741541000159},"geometry":{"type":"Polygon","coordinates":[[[601438.142879872932099,5573075.345427665859461],[605491.787503545172513,5573154.446775160729885],[605435.209705877350643,5575997.585591421462595],[601383.739898809697479,5575918.497397807426751],[601438.142879872932099,5573075.345427665859461]]]}}
]
}
