{
"type": "FeatureCollection",
"name": "low_visibility",
"crs": { "type": "name", "properties": { "name": "urn:ogc:def:crs:EPSG::32635" } },
"features": [
{"type":"Feature","properties":{"id":null},"geometry":{"type":"MultiPolygon","coordinates":[[[[598532.281713413656689,5542449.515779652632773],[599032.508655454148538,5542338.846102208830416],[598979.387210281565785,5542077.665663446299732],[598452.599545655073598,5542197.188915085047483],[598532.281713413656689,5542449.515779652632773]]]]}},
{"type":"Feature","properties":{"id":null},"geometry":{"type":"MultiPolygon","coordinates":[[[[597620.36357128736563,5541342.819005228579044],[597744.313610022771172,5541280.843985859304667],[597536.25461643084418,5540891.286721263080835],[597363.609919620561413,5541001.956398704089224],[597620.36357128736563,5541342.819005228579044]]]]}},
{"type":"Feature","properties":{"id":null},"geometry":{"type":"MultiPolygon","coordinates":[[[[597651.351080971187912,5540988.676037412136793],[598151.57802301144693,5540939.981379335746169],[598138.297661718213931,5540780.617043819278479],[597629.217145482660271,5540824.884914796799421],[597651.351080971187912,5540988.676037412136793]]]]}}
]
}
