{
"type": "FeatureCollection",
"name": "no_fly_zone",
"crs": { "type": "name", "properties": { "name": "urn:ogc:def:crs:EPSG::32635" } },
"features": [
{"type":"Feature","properties":{"id":null},"geometry":{"type":"MultiPolygon","coordinates":[[[[597801.215518063399941,5541252.894897297024727],[597906.638098431401886,5541243.359186509624124],[597883.858344884356484,5541047.347353665158153],[597659.769141389173456,5541068.008060369640589],[597801.215518063399941,5541252.894897297024727]]]]}}
]
}
