{
"type": "FeatureCollection",
"name": "aoi",
"crs": { "type": "name", "properties": { "name": "urn:ogc:def:crs:EPSG::3857" } },
"features": [
{"type":"Feature","properties":{"MINX":3141046.994261961,"MINY":6523453.842896224,"MAXX":3150481.1425710833,"MAXY":6531719.7346727625,"CNTX":3145764.0684165219,"CNTY":6527586.7887844928,"AREA":77981648.927018225,"PERIM":35400.080171321519,"HEIGHT":8265.891776538454,"WIDTH":9434.1483091223054},"geometry":{"type":"Polygon","coordinates":[[[3141046.99426196096465,6523453.84289622399956],[3150481.142571083270013,6523453.84289622399956],[3150481.142571083270013,6531719.734672762453556],[3141046.99426196096465,6531719.734672762453556],[3141046.99426196096465,6523453.84289622399956]]]}}
]
}
