{
"type": "FeatureCollection",
"name": "low_visibility",
"crs": { "type": "name", "properties": { "name": "urn:ogc:def:crs:EPSG::32635" } },
"features": [
{"type":"Feature","properties":{"id":null,"label":"low visibility"},"geometry":{"type":"MultiPolygon","coordinates":[[[[589361.777491268818267,5592718.35747167095542],[590421.854004757478833,5592300.952344484627247],[590355.599222664488479,5591492.644002949818969],[588997.376189757138491,5591916.674608345143497],[589361.777491268818267,5592718.35747167095542]]]]}},
{"type":"Feature","properties":{"id":null,"label":"low visibility"},"geometry":{"type":"MultiPolygon","coordinates":[[[[590077.329137873719446,5591042.111484716646373],[590673.622176710981876,5591240.875830995850265],[591137.405651362263598,5590790.343312763608992],[590057.452703245799057,5590432.567489461041987],[590077.329137873719446,5591042.111484716646373]]]]}}
]
}
