{
"type": "FeatureCollection",
"name": "aoi_",
"crs": { "type": "name", "properties": { "name": "urn:ogc:def:crs:EPSG::32635" } },
"features": [
{"type":"Feature","properties":{"MINX":28.352001419648253,"MINY":49.180683815955042,"MAXX":28.399861653146253,"MAXY":49.215872330030045,"CNTX":28.375931536397253,"CNTY":49.198278072992544,"AREA":0.0016841305000772793,"PERIM":0.1660974951460048,"HEIGHT":0.035188514075002786,"WIDTH":0.047860233497999616},"geometry":{"type":"Polygon","coordinates":[[[598529.279489627573639,5448421.679886319674551],[602017.072553409729153,5448485.077855718322098],[601944.712779974681325,5452396.783783646300435],[598459.39437814289704,5452333.397200630046427],[598529.279489627573639,5448421.679886319674551]]]}}
]
}
