{
"type": "FeatureCollection",
"name": "low_visibility",
"crs": { "type": "name", "properties": { "name": "urn:ogc:def:crs:EPSG::32635" } },
"features": [
{"type":"Feature","properties":{"id":null,"value":0.7},"geometry":{"type":"MultiPolygon","coordinates":[[[[599823.671107537345961,5451152.404214978218079],[600430.945722783333622,5450711.881235885433853],[599838.60408987943083,5450368.422642016783357],[599490.167835230124183,5450751.702522131614387],[599823.671107537345961,5451152.404214978218079]]]]}},
{"type":"Feature","properties":{"id":null,"value":0.8},"geometry":{"type":"MultiPolygon","coordinates":[[[[600005.176627697888762,5449486.553807076066732],[600484.63957490620669,5449578.927402409724891],[600550.620714430231601,5449411.7751822816208],[600115.145193571341224,5448971.900918788276613],[600005.176627697888762,5449486.553807076066732]]]]}}
]
}
