{
"type": "FeatureCollection",
"name": "no_flight_zone",
"crs": { "type": "name", "properties": { "name": "urn:ogc:def:crs:EPSG::32635" } },
"features": [
{"type":"Feature","properties":{"id":null},"geometry":{"type":"MultiPolygon","coordinates":[[[[600296.197838690481149,5449934.295209066942334],[600711.281109477509744,5450101.069737507030368],[600761.313468009582721,5450038.066026763990521],[600559.330983564490452,5449752.696278098970652],[600290.638687742757611,5449750.843227781355381],[600296.197838690481149,5449934.295209066942334]]]]}}
]
}
