{
"type": "FeatureCollection",
"name": "no_fly_zone",
"crs": { "type": "name", "properties": { "name": "urn:ogc:def:crs:EPSG::32635" } },
"features": [
{"type":"Feature","properties":{"id":null},"geometry":{"type":"MultiPolygon","coordinates":[[[[600703.787593265413307,5450091.671016225591302],[600760.609758336911909,5450040.647031263448298],[600550.715638378984295,5449747.259117731824517],[600280.520445284084417,5449750.738025796599686],[600299.074621633859351,5449938.59906133916229],[600703.787593265413307,5450091.671016225591302]]]]}}
]
}
